NORAD_CAT_ID,OBJECT_NAME,OBJECT_TYPE,EPOCH,MEAN_MOTION,ECCENTRICITY,INCLINATION,RA_OF_ASC_NODE,ARG_OF_PERICENTER,MEAN_ANOMALY,BSTAR,MEAN_MOTION_DOT,MEAN_MOTION_DDOT,TLE_LINE0,TLE_LINE1,TLE_LINE2,SEMIMAJOR_AXIS,PERIOD,APOGEE,PERIGEE,DECAYED
52864.0,STARLINK-4267,PAYLOAD,2024-05-08 09:16:58,15.08846456,0.0001209,53.2134,153.2268,107.5398,252.5726,4.2867e-05,3.95e-06,0.0,0 STARLINK-4267,1 52864U 22062AL  24129.38678256  .00000395  00000-0  42867-4 0  9998,2 52864  53.2134 153.2268 0001209 107.5398 252.5726 15.08846456104738,6917.861,95.437,540.562,538.889,0.0
52864.0,STARLINK-4267,PAYLOAD,2024-05-08 18:49:16,15.08843039,0.000121,53.2132,151.4415,96.3774,263.7356,0.00017403,2.483e-05,0.0,0 STARLINK-4267,1 52864U 22062AL  24129.78422437  .00002483  00000-0  17403-3 0  9997,2 52864  53.2132 151.4415 0001210  96.3774 263.7356 15.08843039105283,6917.871,95.437,540.573,538.899,0.0
52864.0,STARLINK-4267,PAYLOAD,2024-05-09 10:43:08,15.0884958,0.0001344,53.2141,148.4675,93.4423,266.6723,0.00034734,5.246e-05,0.0,0 STARLINK-4267,1 52864U 22062AL  24130.44662329  .00005246  00000-0  34734-3 0  9994,2 52864  53.2141 148.4675 0001344  93.4423 266.6723 15.08849580104897,6917.851,95.437,540.646,538.786,0.0
52864.0,STARLINK-4267,PAYLOAD,2024-05-10 04:12:22,15.08850946,0.0001377,53.2142,145.1966,92.5446,267.5704,0.00038492,5.845e-05,0.0,0 STARLINK-4267,1 52864U 22062AL  24131.17526295  .00005845  00000-0  38492-3 0  9996,2 52864  53.2142 145.1966 0001377  92.5446 267.5704 15.08850946105490,6917.847,95.437,540.665,538.759,0.0
52864.0,STARLINK-4267,PAYLOAD,2024-05-10 10:33:55,15.08852906,0.0001374,53.2144,144.0071,93.2162,266.8987,0.00037368,5.666e-05,0.0,0 STARLINK-4267,1 52864U 22062AL  24131.44022119  .00005666  00000-0  37368-3 0  9994,2 52864  53.2144 144.0071 0001374  93.2162 266.8987 15.08852906105041,6917.841,95.437,540.656,538.755,0.0
52864.0,STARLINK-4267,PAYLOAD,2024-05-11 04:03:10,15.08836099,0.0001415,53.2144,140.7352,96.7974,263.318,-3.8086e-05,-8.94e-06,0.0,0 STARLINK-4267,1 52864U 22062AL  24132.16886711 -.00000894  00000-0 -38086-4 0  9999,2 52864  53.2144 140.7352 0001415  96.7974 263.3180 15.08836099105649,6917.892,95.438,540.736,538.778,0.0
52864.0,STARLINK-4267,PAYLOAD,2024-05-11 07:13:56,15.08836807,0.0001454,53.2162,140.1412,99.0464,261.0693,-2.358e-05,-6.63e-06,0.0,0 STARLINK-4267,1 52864U 22062AL  24132.30135057 -.00000663  00000-0 -23580-4 0  9992,2 52864  53.2162 140.1412 0001454  99.0464 261.0693 15.08836807105172,6917.89,95.438,540.761,538.749,0.0
52864.0,STARLINK-4267,PAYLOAD,2024-05-12 05:29:21,15.0882432,0.0001428,53.2165,135.9773,100.3989,259.7165,-0.00011978,-2.193e-05,0.0,0 STARLINK-4267,1 52864U 22062AL  24133.22872373 -.00002193  00000-0 -11978-3 0  9990,2 52864  53.2165 135.9773 0001428 100.3989 259.7165 15.08824320105801,6917.928,95.439,540.781,538.805,0.0
52864.0,STARLINK-4267,PAYLOAD,2024-05-12 10:15:31,15.08822992,0.0001184,53.2169,135.0874,84.7223,275.3904,-0.00012509,-2.277e-05,0.0,0 STARLINK-4267,1 52864U 22062AL  24133.42744718 -.00002277  00000-0 -12509-3 0  9997,2 52864  53.2169 135.0874 0001184  84.7223 275.3904 15.08822992105340,6917.932,95.439,540.616,538.978,0.0
52864.0,STARLINK-4267,PAYLOAD,2024-05-12 16:37:04,15.08824079,0.0001289,53.2166,133.899,86.9375,273.1764,-0.00012351,-2.252e-05,0.0,0 STARLINK-4267,1 52864U 22062AL  24133.69240889 -.00002252  00000-0 -12351-3 0  9994,2 52864  53.2166 133.8990 0001289  86.9375 273.1764 15.08824079105382,6917.929,95.439,540.686,538.902,0.0
52864.0,STARLINK-4267,PAYLOAD,2024-05-13 05:20:09,15.08845085,0.0001058,53.216,131.5194,80.6346,279.4766,-0.00029458,-4.974e-05,0.0,0 STARLINK-4267,1 52864U 22062AL  24134.22232877 -.00004974  00000-0 -29458-3 0  9991,2 52864  53.2160 131.5194 0001058  80.6346 279.4766 15.08845085105954,6917.865,95.437,540.462,538.998,0.0
52864.0,STARLINK-4267,PAYLOAD,2024-05-13 06:55:32,15.08825904,0.0001197,53.2159,131.2224,79.3442,280.7685,-3.4991e-05,-8.44e-06,0.0,0 STARLINK-4267,1 52864U 22062AL  24134.28857203 -.00000844  00000-0 -34991-4 0  9994,2 52864  53.2159 131.2224 0001197  79.3442 280.7685 15.08825904105963,6917.923,95.438,540.617,538.96,0.0
52864.0,STARLINK-4267,PAYLOAD,2024-05-13 16:27:51,15.08834921,0.0001243,53.217,129.4375,79.8766,280.2366,-4.1635e-06,-3.54e-06,0.0,0 STARLINK-4267,1 52864U 22062AL  24134.68600860 -.00000354  00000-0 -41635-5 0  9993,2 52864  53.2170 129.4375 0001243  79.8766 280.2366 15.08834921106026,6917.896,95.438,540.621,538.901,0.0
52864.0,STARLINK-4267,PAYLOAD,2024-05-14 08:21:42,15.0883589,0.0001178,53.2162,126.4641,77.8707,282.2417,0.00021206,3.088e-05,0.0,0 STARLINK-4267,1 52864U 22062AL  24135.34840470  .00003088  00000-0  21206-3 0  9995,2 52864  53.2162 126.4641 0001178  77.8707 282.2417 15.08835890105631,6917.893,95.438,540.573,538.943,0.0
52864.0,STARLINK-4267,PAYLOAD,2024-05-14 16:18:37,15.0884181,0.0001186,53.2163,124.9772,77.2495,282.8629,0.00021972,3.211e-05,0.0,0 STARLINK-4267,1 52864U 22062AL  24135.67960126  .00003211  00000-0  21972-3 0  9990,2 52864  53.2163 124.9772 0001186  77.2495 282.8629 15.08841810106177,6917.875,95.437,540.56,538.919,0.0
52864.0,STARLINK-4267,PAYLOAD,2024-05-15 05:01:41,15.08855357,0.0001139,53.2155,122.5974,73.9223,286.1895,0.00023685,3.485e-05,0.0,0 STARLINK-4267,1 52864U 22062AL  24136.20950967  .00003485  00000-0  23685-3 0  9998,2 52864  53.2155 122.5974 0001139  73.9223 286.1895 15.08855357106258,6917.833,95.437,540.486,538.911,0.0
52864.0,STARLINK-4267,PAYLOAD,2024-05-15 08:12:27,15.08858057,0.0001177,53.2159,122.003,75.7772,284.3351,0.00025355,3.752e-05,0.0,0 STARLINK-4267,1 52864U 22062AL  24136.34198657  .00003752  00000-0  25355-3 0  9996,2 52864  53.2159 122.0030 0001177  75.7772 284.3351 15.08858057105785,6917.825,95.436,540.504,538.876,0.0
52864.0,STARLINK-4267,PAYLOAD,2024-05-16 04:52:28,15.08854063,0.0001052,53.2151,118.1362,85.3068,274.8044,1.4315e-06,-2.65e-06,0.0,0 STARLINK-4267,1 52864U 22062AL  24137.20311019 -.00000265  00000-0  14315-5 0  9994,2 52864  53.2151 118.1362 0001052  85.3068 274.8044 15.08854063106404,6917.837,95.437,540.43,538.975,0.0
52864.0,STARLINK-4267,PAYLOAD,2024-05-16 08:03:14,15.08857775,0.0001111,53.2161,117.5416,87.3333,272.7786,2.7248e-05,1.46e-06,0.0,0 STARLINK-4267,1 52864U 22062AL  24137.33558581  .00000146  00000-0  27248-4 0  9990,2 52864  53.2161 117.5416 0001111  87.3333 272.7786 15.08857775105931,6917.826,95.436,540.46,538.922,0.0
52864.0,STARLINK-4267,PAYLOAD,2024-05-16 16:00:09,15.08879709,0.0001286,53.218,116.0537,71.0073,289.1059,-0.00043884,-7.273e-05,0.0,0 STARLINK-4267,1 52864U 22062AL  24137.66678045 -.00007273  00000-0 -43884-3 0  9997,2 52864  53.2180 116.0537 0001286  71.0073 289.1059 15.08879709106470,6917.759,95.435,540.514,538.734,0.0
52864.0,STARLINK-4267,PAYLOAD,2024-05-17 04:43:15,15.08855447,0.0001334,53.218,113.675,94.1838,265.9307,-0.00010918,-2.026e-05,0.0,0 STARLINK-4267,1 52864U 22062AL  24138.19670355 -.00002026  00000-0 -10918-3 0  9995,2 52864  53.2180 113.6750 0001334  94.1838 265.9307 15.08855447106559,6917.833,95.437,540.621,538.775,0.0
52864.0,STARLINK-4267,PAYLOAD,2024-05-17 15:50:57,15.08844308,0.0001195,53.2185,111.5929,96.8843,263.2285,-0.00011214,-2.072e-05,0.0,0 STARLINK-4267,1 52864U 22062AL  24138.66038791 -.00002072  00000-0 -11214-3 0  9990,2 52864  53.2185 111.5929 0001195  96.8843 263.2285 15.08844308106627,6917.867,95.437,540.559,538.906,0.0
52864.0,STARLINK-4267,PAYLOAD,2024-05-18 04:34:03,15.08835673,0.0001512,53.2178,109.2146,101.9373,258.1789,-9.9091e-05,-1.864e-05,0.0,0 STARLINK-4267,1 52864U 22062AL  24139.19031613 -.00001864  00000-0 -99091-4 0  9993,2 52864  53.2178 109.2146 0001512 101.9373 258.1789 15.08835673106709,6917.894,95.438,540.805,538.713,0.0
52864.0,STARLINK-4267,PAYLOAD,2024-05-18 07:44:49,15.08837595,0.0001689,53.2189,108.6186,104.4616,255.6564,-7.0288e-05,-1.406e-05,0.0,0 STARLINK-4267,1 52864U 22062AL  24139.32279430 -.00001406  00000-0 -70288-4 0  9998,2 52864  53.2189 108.6186 0001689 104.4616 255.6564 15.08837595106237,6917.888,95.438,540.921,538.584,0.0
52864.0,STARLINK-4267,PAYLOAD,2024-05-19 04:24:49,15.08846194,0.0001414,53.2168,104.7528,100.7444,259.3708,9.5373e-05,1.23e-05,0.0,0 STARLINK-4267,1 52864U 22062AL  24140.18390427  .00001230  00000-0  95373-4 0  9999,2 52864  53.2168 104.7528 0001414 100.7444 259.3708 15.08846194106859,6917.861,95.437,540.705,538.748,0.0
52864.0,STARLINK-4267,PAYLOAD,2024-05-19 07:35:35,15.08842005,0.0001453,53.2169,104.1587,103.0374,257.078,0.00016126,2.28e-05,0.0,0 STARLINK-4267,1 52864U 22062AL  24140.31638439  .00002280  00000-0  16126-3 0  9996,2 52864  53.2169 104.1587 0001453 103.0374 257.0780 15.08842005106380,6917.874,95.437,540.744,538.734,0.0
52864.0,STARLINK-4267,PAYLOAD,2024-05-20 04:15:36,15.08848374,0.000111,53.2169,100.2943,101.688,258.4237,0.00013247,1.822e-05,0.0,0 STARLINK-4267,1 52864U 22062AL  24141.17750539  .00001822  00000-0  13247-3 0  9999,2 52864  53.2169 100.2943 0001110 101.6880 258.4237 15.08848374107006,6917.855,95.437,540.488,538.952,0.0
52864.0,STARLINK-4267,PAYLOAD,2024-05-20 21:44:52,15.08840469,0.0001137,53.2173,97.0244,99.5176,260.5945,-7.7217e-05,-1.517e-05,0.0,0 STARLINK-4267,1 52864U 22062AL  24141.90615819 -.00001517  00000-0 -77217-4 0  9992,2 52864  53.2173  97.0244 0001137  99.5176 260.5945 15.08840469107119,6917.879,95.438,540.531,538.957,0.0
52864.0,STARLINK-4267,PAYLOAD,2024-05-21 05:41:47,15.08839938,0.0001077,53.2177,95.5382,97.2592,262.8523,-7.4002e-05,-1.465e-05,0.0,0 STARLINK-4267,1 52864U 22062AL  24142.23735850 -.00001465  00000-0 -74002-4 0  9998,2 52864  53.2177  95.5382 0001077  97.2592 262.8523 15.08839938106675,6917.881,95.438,540.491,539.001,0.0
52864.0,STARLINK-4267,PAYLOAD,2024-05-22 03:57:11,15.08846881,8.22e-05,53.2182,91.379,87.8661,272.2425,4.954e-05,5.01e-06,0.0,0 STARLINK-4267,1 52864U 22062AL  24143.16471401  .00000501  00000-0  49540-4 0  9997,2 52864  53.2182  91.3790 0000822  87.8661 272.2425 15.08846881107309,6917.859,95.437,540.293,539.156,0.0
